[{"OBJECT_NAME":"STARLINK-6376","OBJECT_ID":"2023-099X","EPOCH":"2026-03-09T22:00:01.999584","MEAN_MOTION":15.14373336,"ECCENTRICITY":0.00016799,"INCLINATION":42.9997,"RA_OF_ASC_NODE":246.8696,"ARG_OF_PERICENTER":215.6032,"MEAN_ANOMALY":44.7192,"EPHEMERIS_TYPE":0,"CLASSIFICATION_TYPE":"U","NORAD_CAT_ID":57349,"ELEMENT_SET_NO":999,"REV_AT_EPOCH":578,"BSTAR":0.0065474134,"MEAN_MOTION_DOT":0.00124192,"MEAN_MOTION_DDOT":0},{"OBJECT_NAME":"TIANYI F","OBJECT_ID":"2025-103F","EPOCH":"2026-03-09T23:54:55.522944","MEAN_MOTION":15.18246358,"ECCENTRICITY":0.00043161,"INCLINATION":97.388,"RA_OF_ASC_NODE":142.7834,"ARG_OF_PERICENTER":136.4512,"MEAN_ANOMALY":223.7064,"EPHEMERIS_TYPE":0,"CLASSIFICATION_TYPE":"U","NORAD_CAT_ID":64053,"ELEMENT_SET_NO":999,"REV_AT_EPOCH":4499,"BSTAR":0.00028443218,"MEAN_MOTION_DOT":5.759e-5,"MEAN_MOTION_DDOT":0}]
